IRIDIUM 155             
1 43573U 18061E   24289.82261150  .00000608  00000+0  20985-3 0  9998
2 43573  86.3935 311.3470 0002356  95.9067 264.2398 14.34223518326018
IRIDIUM 154             
1 43574U 18061F   24289.80358868  .00000003  00000+0 -58549-5 0  9999
2 43574  86.3935 311.4582 0001857  90.0237 270.1172 14.34218758326065
IRIDIUM 163             
1 43575U 18061G   24289.78456217  .00000062  00000+0  14912-4 0  9993
2 43575  86.3936 311.4011 0002082  98.2932 261.8500 14.34217435326037
IRIDIUM 156             
1 43576U 18061H   24289.48011172 -.00000161  00000+0 -64502-4 0  9990
2 43576  86.3934 311.5352 0002422  95.6146 264.5326 14.34220690325987
IRIDIUM 164             
1 43577U 18061J   24289.46109341  .00000755  00000+0  26243-3 0  9991
2 43577  86.3938 311.5738 0002334  88.1299 272.0164 14.34222863326022
IRIDIUM 159             
1 43578U 18061K   24289.77821577  .00000562  00000+0  19361-3 0  9997
2 43578  86.3935 311.3905 0002204  90.6846 269.4602 14.34220007326032
IRIDIUM 180             
1 43922U 19002A   24289.91725541  .00000351  00000+0  11843-3 0  9999
2 43922  86.3949 248.1597 0002140  84.9030 275.2410 14.34213901301663
IRIDIUM 176             
1 43923U 19002B   24289.82847579  .00002900  00000+0  45566-3 0  9997
2 43923  86.6074 248.2084 0002301  92.6355 267.5126 14.72275577309590
IRIDIUM 168             
1 43924U 19002C   24289.91091900  .00000425  00000+0  14454-3 0  9999
2 43924  86.3950 248.2227 0002260  86.0626 274.0828 14.34212797301645
IRIDIUM 173             
1 43925U 19002D   24289.89822170  .00000810  00000+0  28199-3 0  9997
2 43925  86.3946 248.1418 0002218  81.1370 279.0076 14.34217802301627
IRIDIUM 169             
1 43926U 19002E   24289.94369207  .00000459  00000+0  14359-3 0  9993
2 43926  86.4165 279.7684 0002546 132.6761 227.4652 14.38611236302639
IRIDIUM 172             
1 43927U 19002F   24289.82212133  .00000196  00000+0  62844-4 0  9997
2 43927  86.3943 248.1797 0002197  85.1885 274.9562 14.34214794301628
IRIDIUM 175             
1 43928U 19002G   24289.89096991  .00003033  00000+0  47673-3 0  9992
2 43928  86.1552 214.5388 0002899  96.8611 263.2936 14.72264226309598
IRIDIUM 171             
1 43929U 19002H   24289.59378552  .00001418  00000+0  49925-3 0  9993
2 43929  86.3955 248.5140 0002676  79.7341 280.4157 14.34216354301588
IRIDIUM 170             
1 43930U 19002J   24289.90265109  .00002925  00000+0  45974-3 0  9997
2 43930  86.6073 248.1828 0002274  83.5119 276.6357 14.72262279309613
IRIDIUM 167             
1 43931U 19002K   24289.58744575  .00000350  00000+0  11802-3 0  9994
2 43931  86.3950 248.2945 0002569  84.1168 276.0320 14.34209333301586
IRIDIUM 181             
1 56726U 23068S   24289.78727301  .00000449  00000+0  12691-3 0  9993
2 56726  86.8591 307.8426 0002693  87.7174 272.4336 14.43564461 74533
IRIDIUM 177             
1 56727U 23068T   24289.28564424  .00004015  00000+0  52438-3 0  9990
2 56727  86.1933 258.3095 0002812 101.9307 258.2230 14.80262174 76140
IRIDIUM 174             
1 56728U 23068U   24289.34788110  .00002512  00000+0  32634-3 0  9994
2 56728  86.1945 258.3931 0002812  93.3651 266.7892 14.80319700 76156
IRIDIUM 178             
1 56729U 23068V   24289.20721495  .00001704  00000+0  22080-3 0  9999
2 56729  86.5721 281.6248 0002495  88.3858 271.7649 14.80245300 76131
IRIDIUM 179             
1 56730U 23068W   24289.87780606  .00001525  00000+0  19714-3 0  9994
2 56730  86.6728 286.9976 0002600  97.6349 262.5168 14.80246862 76232
